#dP2020 10 12  0  0  0.00000000      96 __u+U ITR00 FIT  IAC
## 2127  86400.00000000   900.00000000 59134 0.0000000000000
+  115   C06C07C08C09C10C11C12C13C14C16C19C20C21C22C23C24C25
+        C26C27C28C29C30C32C33C34C35C36C37C38C39C40C43C44C45
+        C46E01E02E03E04E05E07E08E09E11E12E13E14E15E18E19E21
+        E24E25E26E27E30E31E33E36G01G02G03G04G05G06G07G08G09
+        G10G11G12G13G15G16G17G18G19G20G21G22G24G25G26G27G28
+        G29G30G31G32J01J02J03R01R02R03R04R05R07R08R09R11R12
+        R13R14R15R16R17R18R19R20R21R22R23R24R26  0  0  0  0
++         9  7  9  8  6  9  8  9  8  8  8  7  6  7  6  7  7
++         7  6  8  8  7  8  7  7  9  6  6 10 10  5  9 10  8
++         8  7  5  6  6  6  5  7  5  8  7  7  7  6  6  6  5
++         6  6  7  6  5  6  7  8  7  6  5  6  7  6  6  6  6
++         5  7  6  6  7  5  7  6  7  4  6  6  6  5  6  6  6
++         5  6  5  6  7  8  9  6  7  6  7  7  6  6  6  7  7
++         6  7  7  7  7  8  6  8  7  7  6  8  6  0  0  0  0
%c M  cc GPS ccc cccc cccc cccc cccc ccccc ccccc ccccc ccccc
%c cc cc ccc ccc cccc cccc cccc cccc ccccc ccccc ccccc ccccc
%f  0.0000000  0.000000000  0.00000000000  0.000000000000000
%f  0.0000000  0.000000000  0.00000000000  0.000000000000000
%i    0    0    0    0      0      0      0      0         0
%i    0    0    0    0      0      0      0      0         0
/* INFORMATION & ANALYSIS CENTER (IAC)      ULTRA-RAPID DATA
/* S/V CLOCKS ARE ALIGNED TO GNSS TIME                      
/* G:C1WC2W R:C1PC2P E:C1XC5X C:C2IC6I J:C1CC2S             
/* PCV:IGS14_2118 OL/AL:FES2004  NONE     YN ORB:CoN CLK:CoN
*  2020 10 12 19  0  0.00000000
PC06  -7869.355584  27302.570165 -30595.003289     44.442787
PC07 -22317.185173  24801.595184  25734.268781    -93.551503
PC08 -18769.153843  37835.860881   3425.961724   -601.117729
PC09   4916.246975  35816.366191 -21112.117494    868.728266
PC10  -6478.875308  27034.781437  31837.887285   -165.595650
PC11  -3151.347007 -25504.476467 -10741.725082   -680.425260
PC12  10037.313368 -13504.765634 -22219.003599    552.942823
PC13  -9446.673452  39955.424043 -10175.432487    692.367896
PC14   1280.877946 -15928.709336  22894.372283    -40.594467
PC16  -4414.107108  29452.552710 -29682.431836   -595.337892
PC19   9941.216033  15547.335565 -20922.186854    579.401117
PC20 -10782.992436  13998.946015 -21586.064318   -859.154766
PC21  25998.076027  -3965.688381   9372.721434   -695.501477
PC22  25438.738943   8179.266284  -8100.895144   -773.136878
PC23 -15398.979255  -6085.950526 -22449.362973   -890.572226
PC24  14644.632051 -23544.896755  -3025.732438   -721.276857
PC25  -1510.474071 -20836.088332 -18491.206908   -788.853073
PC26  20681.368808 -13380.965003  13081.111031    864.422919
PC27 -15577.037551   3669.726634  22846.387864    414.547596
PC28 -17716.708344 -15925.875422  14526.195610   -159.076469
PC29  10468.603534  25771.026468   2269.750508    296.450497
PC30  -3861.980237  20960.665981  18004.871246    388.733563
PC32 -25964.767560   4141.850546  -9334.148460   -905.347710
PC33  -9883.782138 -15545.857581  20953.359247   -810.530138
PC34   3499.490400 -21363.125830 -17624.267382   -833.658664
PC35  18250.029027  15493.118493 -14319.775140   -610.857751
PC36    799.518587  21022.112607  18367.054830   -880.271732
PC37 -21006.900569  12315.002435 -13619.827092   -899.454541
PC38 -16070.437472  39070.925300   -534.991591    105.777569
PC39   -147.550161  31053.737632 -28489.084670     23.731671
PC40 -12343.860387  21901.529453  33827.999671 999999.999999
PC43 -10062.283741 -25904.176062  -2637.449120   -413.620435
PC44  15639.023769  -4060.695902 -22754.275392   -172.331587
PC45  15337.712098   5965.499164  22547.989580    254.351560
PC46 -14166.845792  23778.387870   3715.188328    595.670056
PE01 -24486.564558  16123.253079   4091.748411   -959.995078
PE02  24437.979308 -16159.675644  -4172.663398    168.420247
PE03  16992.437072  -8404.393228  22730.493262   -352.999031
PE04   2339.039023  19747.833061 -21927.862916   -625.748969
PE05  26603.523204   8012.150402  10212.772842   -338.427873
PE07 -20605.553523 -19612.449361   8158.658827   -447.872202
PE08  -2794.095200 -19697.491552  21908.378427   6107.514654
PE09  20844.661149  19416.926500  -8077.264616   5900.975441
PE11   9781.411490  23111.641742 -15699.487629   6181.588231
PE12  -2588.865033  29339.414157   2918.196352   5559.964250
PE13  -9666.847162 -23288.283125  15502.339975    404.428815
PE14 -19310.519901  -6608.616474  12465.452237  -1187.978837
PE15   2361.379543 -29371.271810  -2764.613631    848.735303
PE18  23763.234558    147.952625 -22004.581944  -1297.685808
PE19 -18676.769849   6545.050596 -22013.941825    101.392382
PE21 -25926.858081   3319.566127 -13882.319457   -626.291895
PE24  11819.163231  12211.165640  24231.306929   -525.786045
PE25  25875.592985  -3177.407145  14033.529700   -518.134198
PE26 -16208.313026  -2938.439946  24594.968019   2620.751758
PE27 -12321.714618 -11795.209140 -24179.543904    115.025142
PE30   9116.008913 -19955.017637 -19865.289725   3510.982226
PE31  -8434.828824  19905.200124  20234.134452   -474.805237
PE33 -13002.237271  18186.749261  19406.902186   -462.742803
PE36  16004.193412   3543.961115 -24643.517693    495.367406
PG01 -13945.116037  18465.172750  12498.749911     33.151216
PG02  14776.546941   2129.214366 -21326.205839   -528.713777
PG03 -20551.231232  12953.649629 -10702.363158   -324.440333
PG04 -10697.740482  10841.373339 -21752.928371   -144.570192
PG05  25199.376434   -934.594922  -8794.199910    -23.241507
PG06   7669.437624  17763.244970 -18124.407945   -332.711960
PG07  -5103.488059  25648.204230   3053.720564   -392.022677
PG08 -17940.767444   1265.336046  19645.907820    -51.221844
PG09   1027.718978  19259.206501 -18313.963416   -299.194601
PG10  -8108.595478 -13308.698452  21624.794639   -478.021915
PG11 -13445.713977  10645.618220  19886.374730   -138.797478
PG12  22549.712868 -10546.022635  -9273.346547     54.974955
PG13  19807.046367   8567.688698  15428.116640     54.096894
PG15  17771.752991  -3947.789555  19114.191103   -197.410144
PG16 -25807.029999   -790.179161  -7385.660336   -221.506943
PG17  14639.008413  21725.340677   4937.204143    338.896605
PG18   4913.367898 -25772.095478   3951.008381    305.894062
PG19  18018.814167  19375.459429  -3003.573633    -92.674894
PG20   4490.992354 -17369.282801  19431.722343    526.422805
PG21 -16074.263850   1613.066067  21802.637878     57.041741
PG22 -24200.206050  10462.567469  -2242.270324   -744.090075
PG24  14594.379024 -15903.001986  15007.270682    -19.680036
PG25  12152.927072 -15815.101236 -17646.266439      4.341597
PG26 -18770.168784  -7498.750770 -17383.986980    294.172484
PG27 -21442.326485  -9951.438020  12299.937000   -416.912229
PG28   8364.608206  13595.312360  21785.744511    668.456724
PG29   2556.355214 -17373.061522 -19951.046832   -214.145489
PG30   1860.750379  23572.695429  11925.306570   -318.713973
PG31  -9346.259414 -15682.414312 -19179.076883    -74.523193
PG32 -16202.309915 -20690.887344   4473.492823    356.871367
PJ01 -30376.356525  15345.303183 -20324.456612   -340.885436
PJ02 -29704.986445  29866.360923   7560.130162     -5.038285
PJ03 -25660.735379  23451.410782  28928.690579     -1.912648
PR01  10298.603878  -8122.577912  21873.821586     68.953752
PR02 -12317.544148 -12780.157382  18379.641713    449.641104
PR03 -23787.942652  -8680.999744   3331.256289     23.662567
PR04 -21637.858540    202.171644 -13493.312757     57.751359
PR05  -7395.646428   8918.620971 -22724.099459     59.170819
PR07  23916.424170   8393.162350  -2622.458560    -40.745906
PR08  21626.372416   -315.093222  13553.470945    -55.134719
PR09    -96.481745  14461.225714  21015.643084      1.925281
PR11  19950.104828 -13475.301793   8527.072134    -40.889303
PR12  14486.606964 -19289.550264  -8227.092953    171.281141
PR13    516.109379 -14492.676589 -20993.883751    -45.121646
PR14 -13897.498184   -924.090376 -21346.964257     56.516316
PR15 -19949.991737  12864.631403  -9308.177082    106.995953
PR16 -13620.984807  19713.096818   8911.058369     -7.190534
PR17 -11621.878414 -14300.704206  17621.544340    365.602557
PR18  -9971.424897   3275.137529  23262.056165     52.501760
PR19  -3785.470315  18737.872802  16897.203596   -115.118597
PR20   5764.196335  24788.300541  -1459.684340   -423.993004
PR21  11619.660816  13463.413828 -18303.162058   -158.571288
PR22   9574.401862  -4646.372363 -23200.209611    -77.259757
PR23   -253.136866 -23056.095747 -10906.834566    337.945746
PR24  -6383.075182 -24585.407285   2216.886650     16.611799
PR26   3788.193252  24899.687218   4171.570456   -362.945686
EOF
